OBJECT_NAME,OBJECT_ID,EPOCH,MEAN_MOTION,ECCENTRICITY,INCLINATION,RA_OF_ASC_NODE,ARG_OF_PERICENTER,MEAN_ANOMALY,EPHEMERIS_TYPE,CLASSIFICATION_TYPE,NORAD_CAT_ID,ELEMENT_SET_NO,REV_AT_EPOCH,BSTAR,MEAN_MOTION_DOT,MEAN_MOTION_DDOT
KAZSAT-2,2011-035B,2026-06-14T01:32:28.138848,1.00272303,.00010919,0.0305,245.4722,274.4436,212.0828,0,U,37749,999,5336,0,-.189E-5,0
NAVSTAR 66 (USA 232),2011-036A,2026-06-13T15:00:44.770752,2.00562205,.01420022,56.5666,332.1580,62.4967,117.7850,0,U,37753,999,10920,0,-.73E-6,0
BEIDOU-2 IGSO-4,2011-038A,2026-06-13T23:16:16.395744,1.00285286,.0159387,54.5997,165.7018,231.3732,307.5435,0,U,37763,999,5461,0,.62E-6,0
SJ-11-02,2011-039A,2026-06-14T06:01:11.636832,14.64476576,.00092157,98.2627,55.2371,273.4018,199.4031,0,U,37765,999,79352,.98376076E-4,.472E-5,0
ASTRA 1N,2011-041A,2026-06-14T04:38:32.639712,1.00270111,.00059893,0.0911,43.0512,50.5928,257.6911,0,U,37775,999,4449,0,.128E-5,0
BSAT-3C (JCSAT-110R),2011-041B,2026-06-14T00:00:38.613888,1.00271868,.0000052,0.0160,359.6008,329.1252,43.7007,0,U,37776,999,5043,0,-.341E-5,0
PAKSAT-1R,2011-042A,2026-06-14T04:44:02.113152,1.00277046,.00029678,0.6811,84.6195,349.5821,297.4021,0,U,37779,999,5444,0,.162E-5,0
HAIYANG-2A,2011-043A,2026-06-14T06:31:50.795616,13.74459380,.00061928,99.3390,168.0125,95.7574,264.4282,0,U,37781,999,74625,.18463352E-3,.131E-5,0
NIGERIASAT-2,2011-044B,2026-06-14T06:51:59.829696,14.70514392,.00309682,97.8769,142.5573,129.4137,337.6081,0,U,37789,999,79014,.10647075E-3,.602E-5,0
NIGERIASAT-X,2011-044C,2026-06-14T04:33:28.225728,14.60864755,.00120265,97.8543,149.5104,351.1234,8.9753,0,U,37790,999,78973,.7375511E-4,.317E-5,0
RASAT,2011-044D,2026-06-14T06:01:57.390816,14.68164637,.00199747,98.0577,256.6927,198.2612,246.9284,0,U,37791,999,79275,.12713677E-3,.684E-5,0
APRIZESAT 5,2011-044E,2026-06-14T07:19:01.714080,14.81070410,.00525779,98.2455,98.2636,13.5626,346.6985,0,U,37792,999,79836,.13642793E-3,.1024E-4,0
APRIZESAT 6,2011-044F,2026-06-14T00:30:12.180384,14.76911662,.00444836,98.2368,75.4559,95.8552,275.6955,0,U,37793,999,79668,.10635659E-3,.704E-5,0
SES-2,2011-049A,2026-06-14T04:08:20.748768,1.00270868,.00026287,0.0569,104.9706,337.5824,155.0136,0,U,37809,999,5393,0,-.187E-5,0
ARABSAT-5C,2011-049B,2026-06-14T04:38:47.616288,1.00270436,.00033806,0.0499,9.9366,90.6892,251.5596,0,U,37810,999,5400,0,.132E-5,0
EUTELSAT 7 WEST A,2011-051A,2026-06-14T04:31:03.357984,1.00271099,.00040179,0.0621,7.4313,87.8470,227.6561,0,U,37816,999,5384,0,-.52E-6,0
TACSAT 4,2011-052A,2026-06-13T08:00:07.746336,6.15535106,.462501,62.8246,122.4408,283.6448,30.4317,0,U,37818,999,32455,.78098403E-3,.2002E-4,0
QUETZSAT 1,2011-054A,2026-06-14T04:11:05.485056,1.00271067,.00025111,0.0166,24.5825,60.3872,163.2885,0,U,37826,999,4984,0,-.233E-5,0
INTELSAT 18 (IS-18),2011-056A,2026-06-14T01:58:59.998368,1.00271894,.0002013,0.0185,291.6518,169.2628,11.2341,0,U,37834,999,5378,0,.62E-6,0
EUTELSAT 16A,2011-057A,2026-06-14T04:37:40.224288,1.00273130,.0005969,0.0445,12.1897,73.9326,261.7827,0,U,37836,999,730,0,.113E-5,0
JUGNU,2011-058B,2026-06-14T03:21:29.571840,14.13775965,.00186142,19.9620,326.9419,42.7337,118.6103,0,U,37839,999,75859,.70160848E-4,.401E-5,0
SRMSAT,2011-058D,2026-06-14T02:32:35.700000,14.11574987,.00118592,19.9719,78.1172,169.7435,229.6321,0,U,37841,999,75738,.51960943E-4,.361E-5,0
VIASAT-1,2011-059A,2026-06-13T16:01:27.267744,1.00272508,.00021237,0.0179,334.2333,107.8938,305.1138,0,U,37843,999,4728,0,-.13E-6,0
GSAT0101 (GALILEO-PFM),2011-060A,2026-06-12T17:48:57.349152,1.70475562,.00031174,56.9957,341.8816,51.3749,308.6629,0,U,37846,999,9104,0,-.71E-6,0
GSAT0102 (GALILEO-FM2),2011-060B,2026-06-07T09:39:10.082592,1.70476015,.00034343,57.0009,342.0270,13.7700,354.5257,0,U,37847,999,9096,0,-.63E-6,0
SUOMI NPP,2011-061A,2026-06-14T07:25:53.078304,14.19516812,.00016961,98.7954,106.2053,13.8068,346.3154,0,U,37849,999,75803,.43966631E-4,.48E-6,0
COSMOS 2476 [GLONASS-M],2011-064A,2026-06-13T08:47:49.485408,2.13103919,.00227312,65.2676,73.0007,238.9288,234.6258,0,U,37867,999,11368,0,-.31E-6,0
COSMOS 2477 [GLONASS-M],2011-064B,2026-06-13T04:09:58.519008,2.13103103,.00198843,65.2740,73.0865,240.5145,265.3672,0,U,37868,999,11367,0,-.31E-6,0
COSMOS 2475 [GLONASS-M],2011-064C,2026-06-13T05:06:46.528128,2.13101955,.00255895,65.2809,73.1067,253.3203,237.9576,0,U,37869,999,11368,0,-.31E-6,0
YAOGAN-12,2011-066B,2026-06-14T06:00:46.948032,15.26571677,.00084853,97.1146,203.9570,228.4608,131.5905,0,U,37875,999,81159,.26702545E-3,.6923E-4,0
CHUANGXIN 1-03 (CX-1-03),2011-068A,2026-06-14T07:18:19.171584,14.30538013,.00159373,98.6982,182.8983,122.1571,295.9695,0,U,37930,999,76024,.71601401E-4,.142E-5,0
