KAZSAT-2                
1 37749U 11035B   26165.06421457 -.00000189  00000+0  00000+0 0  9996
2 37749   0.0305 245.4722 0001091 274.4436 212.0828  1.00272303 53365
NAVSTAR 66 (USA 232)    
1 37753U 11036A   26164.62551818 -.00000073  00000+0  00000+0 0  9990
2 37753  56.5666 332.1580 0142002  62.4967 117.7850  2.00562205109209
BEIDOU-2 IGSO-4         
1 37763U 11038A   26164.96963421  .00000062  00000+0  00000+0 0  9994
2 37763  54.5997 165.7018 0159387 231.3732 307.5435  1.00285286 54614
SJ-11-02                
1 37765U 11039A   26165.25082913  .00000472  00000+0  98376-4 0  9991
2 37765  98.2627  55.2371 0009215 273.4018 199.4031 14.64476576793522
ASTRA 1N                
1 37775U 11041A   26165.19343333  .00000128  00000+0  00000+0 0  9994
2 37775   0.0911  43.0512 0005989  50.5928 257.6911  1.00270111 44492
BSAT-3C (JCSAT-110R)    
1 37776U 11041B   26165.00044692 -.00000341  00000+0  00000+0 0  9999
2 37776   0.0160 359.6008 0000052 329.1252  43.7007  1.00271868 50437
PAKSAT-1R               
1 37779U 11042A   26165.19724668  .00000162  00000+0  00000+0 0  9991
2 37779   0.6811  84.6195 0002967 349.5821 297.4021  1.00277046 54449
HAIYANG-2A              
1 37781U 11043A   26165.27211569  .00000131  00000+0  18463-3 0  9997
2 37781  99.3390 168.0125 0006192  95.7574 264.4282 13.74459380746255
NIGERIASAT-2            
1 37789U 11044B   26165.28610914  .00000602  00000+0  10647-3 0  9993
2 37789  97.8769 142.5573 0030968 129.4137 337.6081 14.70514392790147
NIGERIASAT-X            
1 37790U 11044C   26165.18991002  .00000317  00000+0  73755-4 0  9997
2 37790  97.8543 149.5104 0012026 351.1234   8.9753 14.60864755789730
RASAT                   
1 37791U 11044D   26165.25135869  .00000684  00000+0  12714-3 0  9991
2 37791  98.0577 256.6927 0019974 198.2612 246.9284 14.68164637792752
APRIZESAT 5             
1 37792U 11044E   26165.30488095  .00001024  00000+0  13643-3 0  9991
2 37792  98.2455  98.2636 0052577  13.5626 346.6985 14.81070410798366
APRIZESAT 6             
1 37793U 11044F   26165.02097431  .00000704  00000+0  10636-3 0  9994
2 37793  98.2368  75.4559 0044483  95.8552 275.6955 14.76911662796687
SES-2                   
1 37809U 11049A   26165.17246237 -.00000187  00000+0  00000+0 0  9999
2 37809   0.0569 104.9706 0002628 337.5824 155.0136  1.00270868 53939
ARABSAT-5C              
1 37810U 11049B   26165.19360667  .00000132  00000+0  00000+0 0  9996
2 37810   0.0499   9.9366 0003380  90.6892 251.5596  1.00270436 54009
EUTELSAT 7 WEST A       
1 37816U 11051A   26165.18823331 -.00000052  00000+0  00000+0 0  9998
2 37816   0.0621   7.4313 0004017  87.8470 227.6561  1.00271099 53848
TACSAT 4                
1 37818U 11052A   26164.33342299  .00002002  00000+0  78098-3 0  9998
2 37818  62.8246 122.4408 4625010 283.6448  30.4317  6.15535106324550
QUETZSAT 1              
1 37826U 11054A   26165.17436904 -.00000233  00000+0  00000+0 0  9998
2 37826   0.0166  24.5825 0002511  60.3872 163.2885  1.00271067 49844
INTELSAT 18 (IS-18)     
1 37834U 11056A   26165.08263887  .00000062  00000+0  00000+0 0  9996
2 37834   0.0185 291.6518 0002013 169.2628  11.2341  1.00271894 53780
EUTELSAT 16A            
1 37836U 11057A   26165.19282667  .00000113  00000+0  00000+0 0  9995
2 37836   0.0445  12.1897 0005969  73.9326 261.7827  1.00273130  7309
JUGNU                   
1 37839U 11058B   26165.13992560  .00000401  00000+0  70161-4 0  9993
2 37839  19.9620 326.9419 0018614  42.7337 118.6103 14.13775965758591
SRMSAT                  
1 37841U 11058D   26165.10596875  .00000361  00000+0  51961-4 0  9994
2 37841  19.9719  78.1172 0011859 169.7435 229.6321 14.11574987757388
VIASAT-1                
1 37843U 11059A   26164.66767671 -.00000013  00000+0  00000+0 0  9999
2 37843   0.0179 334.2333 0002123 107.8938 305.1138  1.00272508 47286
GSAT0101 (GALILEO-PFM)  
1 37846U 11060A   26163.74233043 -.00000071  00000+0  00000+0 0  9997
2 37846  56.9957 341.8816 0003117  51.3749 308.6629  1.70475562 91048
GSAT0102 (GALILEO-FM2)  
1 37847U 11060B   26158.40220003 -.00000063  00000+0  00000+0 0  9998
2 37847  57.0009 342.0270 0003434  13.7700 354.5257  1.70476015 90968
SUOMI NPP               
1 37849U 11061A   26165.30964211  .00000048  00000+0  43967-4 0  9990
2 37849  98.7954 106.2053 0001696  13.8068 346.3154 14.19516812758037
COSMOS 2476 [GLONASS-M] 
1 37867U 11064A   26164.36654497 -.00000031  00000+0  00000+0 0  9999
2 37867  65.2676  73.0007 0022731 238.9288 234.6258  2.13103919113685
COSMOS 2477 [GLONASS-M] 
1 37868U 11064B   26164.17359397 -.00000031  00000+0  00000+0 0  9990
2 37868  65.2740  73.0865 0019884 240.5145 265.3672  2.13103103113671
COSMOS 2475 [GLONASS-M] 
1 37869U 11064C   26164.21303852 -.00000031  00000+0  00000+0 0  9991
2 37869  65.2809  73.1067 0025589 253.3203 237.9576  2.13101955113681
YAOGAN-12               
1 37875U 11066B   26165.25054338  .00006923  00000+0  26703-3 0  9994
2 37875  97.1146 203.9570 0008485 228.4608 131.5905 15.26571677811596
CHUANGXIN 1-03 (CX-1-03)
1 37930U 11068A   26165.30438856  .00000142  00000+0  71601-4 0  9990
2 37930  98.6982 182.8983 0015937 122.1571 295.9695 14.30538013760241
